{
    "links": {
        "self": "http://www.neowsapp.com/rest/v1/neo/3831854?api_key=iIulBulltgU6a56xZRHN4H3l9WmuAYTsLGpBGhQ2"
    },
    "id": "3831854",
    "neo_reference_id": "3831854",
    "name": "(2018 TY5)",
    "designation": "2018 TY5",
    "nasa_jpl_url": "http://ssd.jpl.nasa.gov/sbdb.cgi?sstr=3831854",
    "absolute_magnitude_h": 22.2,
    "estimated_diameter": {
        "kilometers": {
            "estimated_diameter_min": 0.096506147,
            "estimated_diameter_max": 0.2157943048
        },
        "meters": {
            "estimated_diameter_min": 96.5061469579,
            "estimated_diameter_max": 215.7943048444
        },
        "miles": {
            "estimated_diameter_min": 0.059966121,
            "estimated_diameter_max": 0.134088323
        },
        "feet": {
            "estimated_diameter_min": 316.6212271853,
            "estimated_diameter_max": 707.9865871058
        }
    },
    "is_potentially_hazardous_asteroid": false,
    "close_approach_data": [
        {
            "close_approach_date": "2010-10-09",
            "close_approach_date_full": "2010-Oct-09 17:30",
            "epoch_date_close_approach": 1286645400000,
            "relative_velocity": {
                "kilometers_per_second": "28.9951317331",
                "kilometers_per_hour": "104382.4742390581",
                "miles_per_hour": "64859.2101737081"
            },
            "miss_distance": {
                "astronomical": "0.4010639961",
                "lunar": "156.0138944829",
                "kilometers": "59998319.550248307",
                "miles": "37281227.0150563566"
            },
            "orbiting_body": "Earth"
        },
        {
            "close_approach_date": "2015-07-17",
            "close_approach_date_full": "2015-Jul-17 16:32",
            "epoch_date_close_approach": 1437150720000,
            "relative_velocity": {
                "kilometers_per_second": "24.8583879006",
                "kilometers_per_hour": "89490.1964422075",
                "miles_per_hour": "55605.7278948817"
            },
            "miss_distance": {
                "astronomical": "0.4324889922",
                "lunar": "168.2382179658",
                "kilometers": "64699432.031566614",
                "miles": "40202362.8560787132"
            },
            "orbiting_body": "Earth"
        },
        {
            "close_approach_date": "2017-09-25",
            "close_approach_date_full": "2017-Sep-25 02:54",
            "epoch_date_close_approach": 1506308040000,
            "relative_velocity": {
                "kilometers_per_second": "13.3091360091",
                "kilometers_per_hour": "47912.8896326369",
                "miles_per_hour": "29771.2063386793"
            },
            "miss_distance": {
                "astronomical": "0.425773475",
                "lunar": "165.625881775",
                "kilometers": "63694804.96249825",
                "miles": "39578116.54204585"
            },
            "orbiting_body": "Earth"
        },
        {
            "close_approach_date": "2018-10-22",
            "close_approach_date_full": "2018-Oct-22 21:00",
            "epoch_date_close_approach": 1540242000000,
            "relative_velocity": {
                "kilometers_per_second": "18.5359180883",
                "kilometers_per_hour": "66729.305117709",
                "miles_per_hour": "41462.995171612"
            },
            "miss_distance": {
                "astronomical": "0.0539168161",
                "lunar": "20.9736414629",
                "kilometers": "8065840.845741707",
                "miles": "5011881.0975292766"
            },
            "orbiting_body": "Earth"
        }
    ],
    "orbital_data": {
        "orbit_id": "5",
        "orbit_determination_date": "2018-10-25 09:31:23",
        "first_observation_date": "2018-10-11",
        "last_observation_date": "2018-10-24",
        "data_arc_in_days": 13,
        "observations_used": 85,
        "orbit_uncertainty": "8",
        "minimum_orbit_intersection": ".0282484",
        "jupiter_tisserand_invariant": "6.288",
        "epoch_osculation": "2458408.5",
        "eccentricity": ".5106260544251202",
        "semi_major_axis": ".9291589836265312",
        "inclination": "18.9144765823333",
        "ascending_node_longitude": "26.06673069000404",
        "orbital_period": "327.1398665995451",
        "perihelion_distance": ".4547061978836607",
        "perihelion_argument": "133.0030996630547",
        "aphelion_distance": "1.403611769369402",
        "perihelion_time": "2458476.854000413824",
        "mean_anomaly": "284.7800630208765",
        "mean_motion": "1.100446740845191",
        "equinox": "J2000",
        "orbit_class": {
            "orbit_class_type": "ATE",
            "orbit_class_description": "Near-Earth asteroid orbits similar to that of 2062 Aten",
            "orbit_class_range": "a (semi-major axis) < 1.0 AU; q (perihelion) > 0.983 AU"
        }
    },
    "is_sentry_object": false
}